STARLINK-31149          
1 58863U 24019L   26068.53362764 -.00004203  00000+0 -14324-3 0  9991
2 58863  42.9972 249.3676 0000631 268.5815  91.4965 15.27591575119065
FLOCK 4G-15             
1 62678U 25009BX  26068.71779869  .00012647  00000+0  47575-3 0  9991
2 62678  97.4054 151.1927 0003699 316.8208  43.2740 15.27266411121358
